
STARLINK-32731          
1 62493U 25003G   25062.74867394  .00001031  00000+0  31944-4 0  9996
2 62493  42.9986 224.4772 0001500 270.1196  89.9488 15.40685651  9932
STARLINK-32694          
1 62494U 25003H   25064.44988380  .00001917  00000+0  53141-4 0  9991
2 62494  43.0017 214.8873 0001991 272.6519  87.4109 15.40710114 10191
STARLINK-32708          
1 62495U 25003J   25064.44540749  .00003693  00000+0  95616-4 0  9991
2 62495  43.0037 214.8531 0002532 281.0431  79.0140 15.40707796 10075
STARLINK-32718          
1 62496U 25003K   25064.47005562  .00001309  00000+0  38596-4 0  9990
2 62496  43.0042 215.0492 0001491 276.1090  83.9596 15.40691198 10077
STARLINK-32729          
1 62497U 25003L   25064.67336250  .00001995  00000+0  55021-4 0  9997
2 62497  43.0030 213.1155 0001227 263.5815  96.4901 15.40692373 10235
STARLINK-32739          
1 62498U 25003M   25064.75387160 -.00002915  00000+0 -62564-4 0  9998
2 62498  43.0003 212.8619 0001279 261.8526  98.2186 15.40688289 10195
STARLINK-32714          
1 62499U 25003N   25064.46109047  .00000220  00000+0  12564-4 0  9993
2 62499  43.0054 214.9821 0003077 306.6693  53.3880 15.40702011 10194
STARLINK-32685          
1 62500U 25003P   25064.45212663 -.00003565  00000+0 -78054-4 0  9997
2 62500  43.0033 214.9067 0001663 281.6632  78.4038 15.40720438 10141
STARLINK-32691          
1 62501U 25003Q   25064.68007956  .00001248  00000+0  37140-4 0  9995
2 62501  43.0024 213.1642 0001645 282.1512  77.9160 15.40705174 10213
STARLINK-32788          
1 62502U 25003R   25064.83662351  .00005012  00000+0  12714-3 0  9991
2 62502  43.0033 212.6266 0002157 271.7225  88.3385 15.40704937  9987
STARLINK-32768          
1 62503U 25003S   25064.69128184 -.00000958  00000+0 -15646-4 0  9991
2 62503  43.0074 213.2555 0002292 280.6805  79.3793 15.40704452 10116
STARLINK-32792          
1 62504U 25003T   25064.76060798 -.00002556  00000+0 -53959-4 0  9991
2 62504  43.0038 212.9175 0002569 306.4053  53.6567 15.40682963 10071
STARLINK-32725          
1 62505U 25003U   25064.81645321  .00003065  00000+0  80623-4 0  9991
2 62505  43.0039 212.4625 0001564 274.6381  85.4297 15.40698260 10139
STARLINK-32681          
1 62506U 25003V   25064.58336806 -.00961835  00000+0 -72377-2 0  9996
2 62506  42.9994 199.3281 0001668 265.1304 346.9013 15.73913348  6010
STARLINK-32679          
1 62507U 25003W   25064.69282958  .00000980  00000+0  45116-4 0  9993
2 62507  42.9961 213.2263 0000459 197.1610 162.9226 15.27586429 10238
STARLINK-32749          
1 62508U 25003X   25064.82765255 -.00003307  00000+0 -71887-4 0  9997
2 62508  43.0017 212.5555 0001834 275.1990  84.8657 15.40716729 10137
STARLINK-32744          
1 62509U 25003Y   25064.47229633  .00001970  00000+0  54409-4 0  9997
2 62509  43.0018 215.0602 0001004 259.7990 100.2753 15.40698355 10074
STARLINK-32701          
1 62510U 25003Z   25064.45436740  .00000467  00000+0  18460-4 0  9993
2 62510  43.0042 214.9232 0001987 285.2266  74.8371 15.40702636 10070
STARLINK-11452 [DTC]    
1 62511U 25004A   25064.55646604 -.00006908  00000+0 -50445-4 0  9995
2 62511  43.0024 135.7362 0002253 274.8053  85.2558 15.70807318 10079
STARLINK-11443 [DTC]    
1 62512U 25004B   25064.58826897 -.00015069  00000+0 -11381-3 0  9996
2 62512  43.0007 135.9916 0001695 272.1458  87.9216 15.70909443 10068
STARLINK-11440 [DTC]    
1 62513U 25004C   25064.25444954  .00003365  00000+0  29740-4 0  9994
2 62513  43.0009 137.7812 0002322 290.1338  69.9280 15.70817902  9103
STARLINK-11514 [DTC]    
1 62514U 25004D   25064.55203995 -.00001835  00000+0 -10815-4 0  9991
2 62514  42.9974 135.7010 0001587 159.6391 200.4540 15.70826186  9151
STARLINK-11508 [DTC]    
1 62515U 25004E   25064.48222236  .00001003  00000+0  11310-4 0  9999
2 62515  42.9992 136.0343 0001811 271.0403  89.0257 15.70844236 10051
STARLINK-11510 [DTC]    
1 62516U 25004F   25064.25975293  .00000112  00000+0  43658-5 0  9994
2 62516  42.9974 137.8199 0001432 268.5617  91.5087 15.70832439  9102
STARLINK-11512 [DTC]    
1 62517U 25004G   25064.52986301 -.00010719  00000+0 -79944-4 0  9999
2 62517  43.0015 135.5212 0001711 262.7453  97.3220 15.70898481 10065
STARLINK-11450 [DTC]    
1 62518U 25004H   25064.49814858 -.00005996  00000+0 -43211-4 0  9992
2 62518  42.9956 136.1564 0002027 286.7919  73.2726 15.70867327 10057
STARLINK-11507 [DTC]    
1 62519U 25004J   25064.24913592  .00001931  00000+0  18553-4 0  9995
2 62519  43.0014 137.7374 0001410 259.5648 100.5060 15.70826427  9108
STARLINK-11482 [DTC]    
1 62520U 25004K   25064.47160837  .00000078  00000+0  40950-5 0  9996
2 62520  42.9936 135.9442 0000673 162.3430 197.7460 15.70840620  9144
STARLINK-11528 [DTC]    
1 62521U 25004L   25064.64655598  .00000764  00000+0  94487-5 0  9995
2 62521  42.9990 135.5598 0001781 284.0449  76.0221 15.70838359 10070
STARLINK-11516 [DTC]    
1 62522U 25004M   25064.55111921  .00000393  00000+0  65572-5 0  9994
2 62522  42.9919 135.6829 0001305 266.3950  93.6768 15.70834067  9152
STARLINK-11527 [DTC]    
1 62523U 25004N   25064.47691745  .00000256  00000+0  54919-5 0  9994
2 62523  42.9985 135.9876 0001848 265.8502  94.2154 15.70836211  9148
STARLINK-32748          
1 62524U 25004P   25064.50202108 -.00000867  00000+0 -13484-4 0  9991
2 62524  42.9996 146.8037 0001358 276.2399  83.8302 15.40703129  9795
STARLINK-32777          
1 62525U 25004Q   25064.27617503  .00001659  00000+0  46988-4 0  9998
2 62525  43.0034 147.6876 0002351 263.1982  96.8607 15.40688642  9949
STARLINK-32741          
1 62526U 25004R   25064.51981562 -.00001676  00000+0 -32882-4 0  9994
2 62526  42.9938 146.0619 0001392 274.3690  85.7007 15.40690158  9950
STARLINK-32754          
1 62527U 25004S   25064.55116627  .00007795  00000+0  19384-3 0  9998
2 62527  43.0040 146.3133 0003875 293.3194  66.7254 15.40674263  9951
STARLINK-32786          
1 62528U 25004T   25064.62271472  .00000335  00000+0  15296-4 0  9999
2 62528  43.0023 145.9841 0002068 265.0023  95.0597 15.40705247  9978
STARLINK-32789          
1 62529U 25004U   25064.51084505 -.00003163  00000+0 -68443-4 0  9993
2 62529  43.0036 146.0054 0002035 282.8931  77.1699 15.40714070  9956
STARLINK-32791          
1 62530U 25004V   25064.52657989 -.00009889  00000+0 -23020-3 0  9990
2 62530  42.9978 146.1174 0000875 211.0344 149.0461 15.40646679  9952
STARLINK-32785          
1 62531U 25004W   25064.50427474  .00001581  00000+0  45108-4 0  9994
2 62531  42.9993 146.8176 0001739 274.4754  85.5904 15.40691825  9945
STARLINK-11538 [DTC]    
1 62554U 25006A   25064.44339701  .00002459  00000+0  17000-4 0  9994
2 62554  42.9978 207.9176 0002796 298.5264  61.5324 15.77856287  8505
STARLINK-11534 [DTC]    
1 62555U 25006B   25064.69170244  .00002984  00000+0  19993-4 0  9993
2 62555  43.0046 206.3402 0001928 283.3692  76.6963 15.77873873  9611
STARLINK-11515 [DTC]    
1 62556U 25006C   25064.68684215  .00007607  00000+0  46587-4 0  9997
2 62556  42.9970 206.2952 0000251 178.7608 181.3263 15.77828885  9617
STARLINK-11478 [DTC]    
1 62557U 25006D   25064.42876553 -.00002104  00000+0 -92277-5 0  9995
2 62557  43.0004 207.7988 0002181 294.0869  65.9773 15.77846005  8502
STARLINK-11358 [DTC]    
1 62558U 25006E   25064.42387607  .00001357  00000+0  10663-4 0  9998
2 62558  43.0000 207.7584 0001981 264.0574  96.0070 15.77860079  8500
STARLINK-11517 [DTC]    
1 62559U 25006F   25064.66730185  .00002994  00000+0  20049-4 0  9995
2 62559  42.9959 206.1346 0002391 258.6619 101.3983 15.77875308  9613
STARLINK-11519 [DTC]    
1 62560U 25006G   25064.67218046  .00003838  00000+0  24888-4 0  9998
2 62560  43.0007 206.1790 0002241 271.9110  88.1503 15.77880766  9616
STARLINK-11451 [DTC]    
1 62561U 25006H   25064.66241188 -.00002118  00000+0 -92886-5 0  9997
2 62561  42.9965 206.0947 0001778 260.3603  99.7066 15.77892144  9664
STARLINK-11530 [DTC]    
1 62562U 25006J   25064.46765444  .00001465  00000+0  11282-4 0  9994
2 62562  42.9995 207.2154 0001752 263.7862  96.2808 15.77866141  8514
STARLINK-11536 [DTC]    
1 62563U 25006K   25064.46278062  .00002331  00000+0  16258-4 0  9991
2 62563  42.9991 207.1778 0001724 282.2830  77.7847 15.77858391  9631
STARLINK-11540 [DTC]    
1 62564U 25006L   25064.45789851  .00002665  00000+0  18168-4 0  9996
2 62564  42.9928 207.1280 0001981 266.2217  93.8427 15.77863911  8519
STARLINK-11523 [DTC]    
1 62565U 25006M   25064.38971958  .00000784  00000+0  73697-5 0  9999
2 62565  42.9984 207.4798 0001813 279.4333  80.6332 15.77862624  8506
STARLINK-11525 [DTC]    
1 62566U 25006N   25064.44813234 -.00022161  00000+0 -12428-3 0  9997
2 62566  43.0048 207.0628 0002406 266.3336  93.7259 15.77946068  8514
STARLINK-32752          
1 62567U 25006P   25064.47098454  .00002883  00000+0  76248-4 0  9998
2 62567  43.0003 218.7527 0002067 298.3634  61.7014 15.40705237  8382
STARLINK-32760          
1 62568U 25006Q   25064.82637395 -.00002837  00000+0 -60672-4 0  9996
2 62568  43.0033 216.2499 0002600 294.3101  65.7484 15.40693358  9527
STARLINK-32715          
1 62569U 25006R   25064.77720662  .00001057  00000+0  32555-4 0  9991
2 62569  42.9988 216.7441 0001787 274.3083  85.7569 15.40706187  9463
STARLINK-32764          
1 62570U 25006S   25064.58336806 -.01246852  00000+0 -40952-1 0  9999
2 62570  42.9993 217.5249 0001272 266.9855 235.5452 15.33589125  5936
STARLINK-32773          
1 62571U 25006T   25064.46203021 -.00000706  00000+0 -96344-5 0  9994
2 62571  43.0027 218.6850 0001724 286.3522  73.7145 15.40705779  8382
STARLINK-32750          
1 62572U 25006U   25064.47981057  .00000692  00000+0  23825-4 0  9993
2 62572  42.9991 217.9461 0001858 167.1000 192.9904 15.40708568  8393
